{
  "type": "FeatureCollection",
  "features": [
    {
      "type": "Feature",
      "properties": {
        "norad_id": 36442,
        "name": "COSMOS 2251 DEB",
        "group": "cosmos-2251-debris",
        "lat": 5.3049927207781185,
        "lon": -151.36276253720314,
        "alt_km": 476.97913442293884,
        "timestamp": "2025-12-16T23:36:36.595348+00:00",
        "meta_object_name": "COSMOS 2251 DEB",
        "meta_object_id": "1993-036BAR",
        "meta_epoch": "2025-12-13T10:09:44.142048",
        "meta_mean_motion": 15.30178674,
        "meta_eccentricity": 0.00085328,
        "meta_inclination": 73.9496,
        "meta_ra_of_asc_node": 37.7946,
        "meta_arg_of_pericenter": 324.6725,
        "meta_mean_anomaly": 35.3911,
        "meta_ephemeris_type": 0,
        "meta_classification_type": "U",
        "meta_norad_cat_id": 36442,
        "meta_element_set_no": 999,
        "meta_rev_at_epoch": 85926,
        "meta_bstar": 0.0075856442,
        "meta_mean_motion_dot": 0.00228665,
        "meta_mean_motion_ddot": 0,
        "tle_line1": "1 36442U 93036BAR 25347.42342757  .00228665  00000+0  75856-2 0  9996",
        "tle_line2": "2 36442  73.9496  37.7946 0008532 324.6725  35.3911 15.30178674859266"
      },
      "geometry": {
        "type": "Point",
        "coordinates": [
          -151.36276253720314,
          5.3049927207781185
        ]
      }
    },
    {
      "type": "Feature",
      "properties": {
        "norad_id": 36451,
        "name": "COSMOS 2251 DEB",
        "group": "cosmos-2251-debris",
        "lat": 34.80628899206431,
        "lon": 136.07043934836287,
        "alt_km": 695.3539945723733,
        "timestamp": "2025-12-16T23:36:36.595358+00:00",
        "meta_object_name": "COSMOS 2251 DEB",
        "meta_object_id": "1993-036BBA",
        "meta_epoch": "2025-12-08T10:10:07.447584",
        "meta_mean_motion": 14.18724413,
        "meta_eccentricity": 0.01840749,
        "meta_inclination": 73.9539,
        "meta_ra_of_asc_node": 342.9701,
        "meta_arg_of_pericenter": 168.3937,
        "meta_mean_anomaly": 192.1542,
        "meta_ephemeris_type": 0,
        "meta_classification_type": "U",
        "meta_norad_cat_id": 36451,
        "meta_element_set_no": 999,
        "meta_rev_at_epoch": 84164,
        "meta_bstar": 0.0010726423,
        "meta_mean_motion_dot": 2.61e-05,
        "meta_mean_motion_ddot": 0,
        "tle_line1": "1 36451U 93036BBA 25342.42369731  .00002610  00000+0  10726-2 0  9997",
        "tle_line2": "2 36451  73.9539 342.9701 0184074 168.3937 192.1542 14.18724413841646"
      },
      "geometry": {
        "type": "Point",
        "coordinates": [
          136.07043934836287,
          34.80628899206431
        ]
      }
    },
    {
      "type": "Feature",
      "properties": {
        "norad_id": 36453,
        "name": "COSMOS 2251 DEB",
        "group": "cosmos-2251-debris",
        "lat": -14.708305159794515,
        "lon": -31.328334876831942,
        "alt_km": 763.9105306668225,
        "timestamp": "2025-12-16T23:36:36.595369+00:00",
        "meta_object_name": "COSMOS 2251 DEB",
        "meta_object_id": "1993-036BBC",
        "meta_epoch": "2025-12-14T21:50:20.335776",
        "meta_mean_motion": 14.5262544,
        "meta_eccentricity": 0.00704026,
        "meta_inclination": 73.9229,
        "meta_ra_of_asc_node": 148.2665,
        "meta_arg_of_pericenter": 51.0151,
        "meta_mean_anomaly": 103.2875,
        "meta_ephemeris_type": 0,
        "meta_classification_type": "U",
        "meta_norad_cat_id": 36453,
        "meta_element_set_no": 999,
        "meta_rev_at_epoch": 84499,
        "meta_bstar": 0.00063328924,
        "meta_mean_motion_dot": 2.649e-05,
        "meta_mean_motion_ddot": 0,
        "tle_line1": "1 36453U 93036BBC 25348.90995759  .00002649  00000+0  63329-3 0  9993",
        "tle_line2": "2 36453  73.9229 148.2665 0070402  51.0151 103.2875 14.52625440844996"
      },
      "geometry": {
        "type": "Point",
        "coordinates": [
          -31.328334876831942,
          -14.708305159794515
        ]
      }
    },
    {
      "type": "Feature",
      "properties": {
        "norad_id": 36459,
        "name": "COSMOS 2251 DEB",
        "group": "cosmos-2251-debris",
        "lat": 66.73484322817895,
        "lon": 33.83092934954123,
        "alt_km": 717.6913085448459,
        "timestamp": "2025-12-16T23:36:36.595379+00:00",
        "meta_object_name": "COSMOS 2251 DEB",
        "meta_object_id": "1993-036BBJ",
        "meta_epoch": "2025-12-15T06:52:40.994112",
        "meta_mean_motion": 14.2642949,
        "meta_eccentricity": 0.01133967,
        "meta_inclination": 74.0484,
        "meta_ra_of_asc_node": 355.1955,
        "meta_arg_of_pericenter": 90.2624,
        "meta_mean_anomaly": 271.1518,
        "meta_ephemeris_type": 0,
        "meta_classification_type": "U",
        "meta_norad_cat_id": 36459,
        "meta_element_set_no": 999,
        "meta_rev_at_epoch": 7918,
        "meta_bstar": 0.0010918207,
        "meta_mean_motion_dot": 2.788e-05,
        "meta_mean_motion_ddot": 0,
        "tle_line1": "1 36459U 93036BBJ 25349.28658558  .00002788  00000+0  10918-2 0  9993",
        "tle_line2": "2 36459  74.0484 355.1955 0113396  90.2624 271.1518 14.26429490 79186"
      },
      "geometry": {
        "type": "Point",
        "coordinates": [
          33.83092934954123,
          66.73484322817895
        ]
      }
    },
    {
      "type": "Feature",
      "properties": {
        "norad_id": 36470,
        "name": "COSMOS 2251 DEB",
        "group": "cosmos-2251-debris",
        "lat": -73.45279408044684,
        "lon": 168.24606720388857,
        "alt_km": 564.6460322472021,
        "timestamp": "2025-12-16T23:36:36.595389+00:00",
        "meta_object_name": "COSMOS 2251 DEB",
        "meta_object_id": "1993-036BBV",
        "meta_epoch": "2025-12-15T00:13:00.014016",
        "meta_mean_motion": 15.07582269,
        "meta_eccentricity": 0.00222568,
        "meta_inclination": 73.8449,
        "meta_ra_of_asc_node": 249.6845,
        "meta_arg_of_pericenter": 78.1368,
        "meta_mean_anomaly": 282.2316,
        "meta_ephemeris_type": 0,
        "meta_classification_type": "U",
        "meta_norad_cat_id": 36470,
        "meta_element_set_no": 999,
        "meta_rev_at_epoch": 66128,
        "meta_bstar": 0.0018721064,
        "meta_mean_motion_dot": 0.0002872,
        "meta_mean_motion_ddot": 0,
        "tle_line1": "1 36470U 93036BBV 25349.00902794  .00028720  00000+0  18721-2 0  9994",
        "tle_line2": "2 36470  73.8449 249.6845 0022256  78.1368 282.2316 15.07582269661287"
      },
      "geometry": {
        "type": "Point",
        "coordinates": [
          168.24606720388857,
          -73.45279408044684
        ]
      }
    },
    {
      "type": "Feature",
      "properties": {
        "norad_id": 36528,
        "name": "COSMOS 2251 DEB",
        "group": "cosmos-2251-debris",
        "lat": -66.18141554027929,
        "lon": -2.0248710529687965,
        "alt_km": 771.2441656388737,
        "timestamp": "2025-12-16T23:36:36.595400+00:00",
        "meta_object_name": "COSMOS 2251 DEB",
        "meta_object_id": "1993-036BCN",
        "meta_epoch": "2025-12-14T16:44:10.040352",
        "meta_mean_motion": 14.30658136,
        "meta_eccentricity": 0.00847741,
        "meta_inclination": 74.0159,
        "meta_ra_of_asc_node": 141.651,
        "meta_arg_of_pericenter": 190.7529,
        "meta_mean_anomaly": 169.1813,
        "meta_ephemeris_type": 0,
        "meta_classification_type": "U",
        "meta_norad_cat_id": 36528,
        "meta_element_set_no": 999,
        "meta_rev_at_epoch": 64455,
        "meta_bstar": 0.0012089622,
        "meta_mean_motion_dot": 3.261e-05,
        "meta_mean_motion_ddot": 0,
        "tle_line1": "1 36528U 93036BCN 25348.69733843  .00003261  00000+0  12090-2 0  9995",
        "tle_line2": "2 36528  74.0159 141.6510 0084774 190.7529 169.1813 14.30658136644553"
      },
      "geometry": {
        "type": "Point",
        "coordinates": [
          -2.0248710529687965,
          -66.18141554027929
        ]
      }
    },
    {
      "type": "Feature",
      "properties": {
        "norad_id": 36533,
        "name": "COSMOS 2251 DEB",
        "group": "cosmos-2251-debris",
        "lat": -17.160946644685296,
        "lon": 101.76842656634004,
        "alt_km": 728.7628159495398,
        "timestamp": "2025-12-16T23:36:36.595410+00:00",
        "meta_object_name": "COSMOS 2251 DEB",
        "meta_object_id": "1993-036BCT",
        "meta_epoch": "2025-12-16T02:09:50.256000",
        "meta_mean_motion": 14.4982965,
        "meta_eccentricity": 0.00492471,
        "meta_inclination": 74.0118,
        "meta_ra_of_asc_node": 108.5273,
        "meta_arg_of_pericenter": 257.1253,
        "meta_mean_anomaly": 102.4403,
        "meta_ephemeris_type": 0,
        "meta_classification_type": "U",
        "meta_norad_cat_id": 36533,
        "meta_element_set_no": 999,
        "meta_rev_at_epoch": 84533,
        "meta_bstar": 0.00039238166,
        "meta_mean_motion_dot": 1.509e-05,
        "meta_mean_motion_ddot": 0,
        "tle_line1": "1 36533U 93036BCT 25350.09016500  .00001509  00000+0  39238-3 0  9999",
        "tle_line2": "2 36533  74.0118 108.5273 0049247 257.1253 102.4403 14.49829650845335"
      },
      "geometry": {
        "type": "Point",
        "coordinates": [
          101.76842656634004,
          -17.160946644685296
        ]
      }
    }
  ]
}